IRIDIUM 65 [+]          
1 25288U 98021D   09118.23339953  .00000170  00000-0  53654-4 0  5284
2 25288  86.3994  26.0089 0002260  70.6364 289.5067 14.34222641579048
IRIDIUM 66 [+]          
1 25289U 98021E   09118.23974138 -.00000696  00000-0 -25554-3 0  4815
2 25289  86.3999  25.9350 0002494  77.0679 283.0785 14.34217872579048
IRIDIUM 67 [+]          
1 25290U 98021F   09118.24608423 -.00000440  00000-0 -16429-3 0  3052
2 25290  86.3989  26.0226 0002452  76.8835 283.2613 14.34219046579056
IRIDIUM 68 [+]          
1 25291U 98021G   09118.25243260  .00000212  00000-0  68803-4 0  5206
2 25291  86.3995  26.0841 0002479  76.6082 283.5390 14.34222992579024
IRIDIUM 69 [-]          
1 25319U 98026A   09118.37338414  .00000084  00000-0  21695-4 0  3585
2 25319  86.3980  54.0705 0001671  28.5572 331.5719 14.37083300576029
IRIDIUM 71 [-]          
1 25320U 98026B   09118.36587821  .00000076  00000-0  18572-4 0   829
2 25320  86.3967  51.5140 0004053  53.2936 306.8638 14.37672953576301
IRIDIUM 70 [+]          
1 25342U 98032A   09118.48710382 -.00000390  00000-0 -14634-3 0  5362
2 25342  86.3995  26.0908 0002448  78.8806 281.2665 14.34215060573166
IRIDIUM 72 [+]          
1 25343U 98032B   09118.26511323  .00000208  00000-0  67366-4 0  5269
2 25343  86.3993  25.9883 0002420  77.0392 283.1072 14.34222822573130
IRIDIUM 73 [-]          
1 25344U 98032C   09118.25960477  .00000095  00000-0  20393-4 0  4113
2 25344  86.4456  16.6443 0001676  75.7900 284.3483 14.47121111577504
IRIDIUM 74 [S]          
1 25345U 98032D   09118.49731646  .00000214  00000-0  58062-4 0  5505
2 25345  86.4501  26.0360 0002542  77.1481 283.0015 14.42956100574224
IRIDIUM 75 [+]          
1 25346U 98032E   09118.27145513 -.00000791  00000-0 -28943-3 0  5555
2 25346  86.3991  26.1321 0002413  80.8211 279.3245 14.34215422573705
IRIDIUM 3 [+]           
1 25431U 98048A   09118.32558634  .00000104  00000-0  29929-4 0  4905
2 25431  86.3955  57.7050 0002587  65.6380 294.5087 14.34217178559650
IRIDIUM 76 [+]          
1 25432U 98048B   09118.34461134  .00000118  00000-0  35050-4 0  4161
2 25432  86.3953  57.5466 0003219  74.4949 285.6600 14.34217256559648
IRIDIUM 82 [+]          
1 25467U 98051A   09118.24414805 -.00000621  00000-0 -22874-3 0  6459
2 25467  86.4007 184.0027 0001614  80.7264 279.4118 14.34214041560649
IRIDIUM 81 [+]          
1 25468U 98051B   09118.30757462  .00000051  00000-0  11140-4 0  4791
2 25468  86.4020 183.8289 0002462  87.7703 272.3773 14.34221039556873
IRIDIUM 80 [+]          
1 25469U 98051C   09118.21877924 -.00000718  00000-0 -26362-3 0  4768
2 25469  86.4034 183.9876 0002432  85.5147 274.6323 14.34214397556861
IRIDIUM 77 [+]          
1 25471U 98051E   09118.22512210 -.00000684  00000-0 -25136-3 0  6498
2 25471  86.4025 183.8625 0003080  60.3114 299.8388 14.34214644562064
IRIDIUM 2 [-]           
1 25527U 98066A   09118.49850367  .00000551  00000-0  43924-4 0  8964
2 25527  85.5601 308.8383 0011981  18.5933 341.5726 14.97972870570790
IRIDIUM 86 [+]          
1 25528U 98066B   09118.18358928 -.00000036  00000-0 -19874-4 0  6973
2 25528  86.3964 152.1823 0002483  64.9368 295.2085 14.34221776553387
IRIDIUM 84 [+]          
1 25530U 98066D   09118.49438083 -.00000008  00000-0 -97700-5 0  3646
2 25530  86.3969 152.1599 0002566  84.7984 275.3510 14.34221902551067
IRIDIUM 83 [+]          
1 25531U 98066E   09118.45633720 -.00000075  00000-0 -33701-4 0  4711
2 25531  86.4001 152.1880 0002603  80.9835 279.1656 14.34221028548411
IRIDIUM 20 [+]          
1 25577U 98074A   09118.37632344  .00000171  00000-0  53820-4 0  4092
2 25577  86.3945  57.4977 0002472  77.7271 282.4200 14.34217507542483
IRIDIUM 11 [S]          
1 25578U 98074B   09118.37821115  .00000132  00000-0  25661-4 0  5998
2 25578  86.5140  57.6978 0002605  78.0411 282.1081 14.54941757550301
IRIDIUM 14 [S]          
1 25777U 99032A   09118.37451381  .00000201  00000-0  41715-4 0  5667
2 25777  86.5180  26.0076 0003162  87.3882 272.7686 14.54947196524680
IRIDIUM 21 [+]          
1 25778U 99032B   09118.25877360 -.00000564  00000-0 -20863-3 0  4656
2 25778  86.3999  26.0667 0004474  81.9093 278.2605 14.34218426522140
IRIDIUM 91 [+]          
1 27372U 02005A   09118.01824148 -.00000079  00000-0 -35435-4 0   718
2 27372  86.3927  89.5738 0002001 190.3007 169.8143 14.34211863385620
IRIDIUM 90 [S]          
1 27373U 02005B   09118.48209131  .00000003  00000-0 -51647-5 0   360
2 27373  86.4493 151.9995 0006236 131.7070 228.4671 14.42950799382826
IRIDIUM 94 [S]          
1 27374U 02005C   09118.41525081 -.00000014  00000-0 -68235-5 0  1094
2 27374  86.5742  88.9964 0002608  77.7553 282.3945 14.66602817385865
IRIDIUM 95 [+]          
1 27375U 02005D   09118.47490402 -.00000037  00000-0 -20335-4 0   530
2 27375  86.3933  89.1876 0002618  76.4146 283.7341 14.34212478384977
IRIDIUM 96 [S]          
1 27376U 02005E   09118.42747018  .00000039  00000-0  27267-5 0  1021
2 27376  86.5736  88.9477 0002605  80.0119 280.1384 14.66602855385866
IRIDIUM 97 [+]          
1 27450U 02031A   09118.49094135 -.00000049  00000-0 -24672-4 0  9640
2 27450  86.3949 120.9781 0002119 164.6104 195.5146 14.34216605364299
IRIDIUM 98 [S]          
1 27451U 02031B   09118.23041325  .00000194  00000-0  52029-4 0  9822
2 27451  86.4562 184.1085 0001193 258.9375 101.1686 14.42958722363641
